ONEWEB-0365             
1 49291U 21090N   26202.22844192  .00000050  00000+0  92525-4 0  9992
2 49291  87.9192 298.1907 0002097 100.9371 259.1998 13.19726545230919
ONEWEB-0366             
1 49292U 21090P   26202.15607763  .00000132  00000+0  32066-3 0  9990
2 49292  87.8964 282.9388 0002006  98.2343 261.9015 13.14502460232026
ONEWEB-0367             
1 49293U 21090Q   26202.17794539  .00000014  00000+0  29630-5 0  9995
2 49293  87.9179 267.6678 0002207 100.0943 260.0440 13.20773668234312
ONEWEB-0368             
1 49294U 21090R   26202.15187338  .00000031  00000+0  44813-4 0  9995
2 49294  87.9168 267.6794 0001786 118.0761 242.0553 13.20771796235460
ONEWEB-0369             
1 49295U 21090S   26202.22370283  .00000103  00000+0  22429-3 0  9995
2 49295  87.9182 298.1966 0002010 102.8287 257.3070 13.19726724230908
ONEWEB-0370             
1 49296U 21090T   26202.18721696  .00000013  00000+0 -91796-6 0  9996
2 49296  87.9178 267.6649 0002253  91.9652 268.1740 13.20772336234355
ONEWEB-0371             
1 49297U 21090U   26202.23160448  .00000099  00000+0  21434-3 0  9997
2 49297  87.9191 298.1898 0002090 100.6457 259.4911 13.19725432230943
ONEWEB-0372             
1 49298U 21090V   26201.72243670 -.00000104  00000+0 -28661-3 0  9998
2 49298  87.9182 267.7597 0002071  98.8531 261.2837 13.20769759234261
ONEWEB-0373             
1 49299U 21090W   26202.12660272  .00000055  00000+0  10263-3 0  9997
2 49299  87.9174 267.6782 0002046  94.8728 265.2639 13.20770080235505
ONEWEB-0374             
1 49300U 21090X   26201.76278879  .00000143  00000+0  35072-3 0  9990
2 49300  87.8967 283.0090 0001471  92.5049 267.6249 13.14503131231977
ONEWEB-0375             
1 49301U 21090Y   26202.11482002  .00000020  00000+0  17457-4 0  9998
2 49301  87.9179 267.6731 0001562  87.3422 272.7890 13.20770464235001
ONEWEB-0376             
1 49302U 21090Z   26202.00256715  .00000028  00000+0  38057-4 0  9994
2 49302  87.9191 298.2352 0002115 104.9947 255.1420 13.19723057230911
ONEWEB-0377             
1 49303U 21090AA  26201.72269851 -.00000018  00000+0 -75610-4 0  9995
2 49303  87.9180 267.7535 0001734  95.4241 264.7090 13.20769747234945
ONEWEB-0378             
1 49304U 21090AB  26202.19746252  .00000059  00000+0  11421-3 0  9995
2 49304  87.9173 267.6620 0001917  98.2727 261.8624 13.20772172234278
ONEWEB-0379             
1 49305U 21090AC  26202.13862942  .00000228  00000+0  58009-3 0  9996
2 49305  87.8965 282.9441 0001886  99.9079 260.2264 13.14502330232025
ONEWEB-0380             
1 49306U 21090AD  26202.22686207  .00000118  00000+0  26142-3 0  9996
2 49306  87.9183 298.1936 0001943  94.9650 265.1704 13.19727084230910
ONEWEB-0381             
1 49307U 21090AE  26202.09798128  .00000023  00000+0  23494-4 0  9991
2 49307  87.9181 267.6834 0001787  94.6558 265.4779 13.20769957234306
ONEWEB-0382             
1 49308U 21090AF  26202.16028503  .00000042  00000+0  72344-4 0  9992
2 49308  87.9182 267.6648 0001723  98.7631 261.3697 13.20772145234305
ONEWEB-0383             
1 49309U 21090AG  26202.13228401  .00000188  00000+0  47235-3 0  9990
2 49309  87.8966 282.9377 0001883 102.3980 257.7360 13.14502902232051
ONEWEB-0384             
1 49310U 21090AH  26202.14784674  .00000019  00000+0  13875-4 0  9999
2 49310  87.9177 267.7109 0001583 102.4502 257.6809 13.20814684234318
ONEWEB-0385             
1 49311U 21090AJ  26202.15354521 -.00000006  00000+0 -46272-4 0  9990
2 49311  87.9178 267.6716 0001860  96.7746 263.3599 13.20771241234283
ONEWEB-0386             
1 49312U 21090AK  26202.17037001 -.00000002  00000+0 -37790-4 0  9995
2 49312  87.9188 267.6611 0001730  96.3299 263.8032 13.20769726234309
ONEWEB-0387             
1 49313U 21090AL  26202.15522783  .00000053  00000+0  98858-4 0  9996
2 49313  87.9169 267.6811 0001866  88.0380 272.0967 13.20770894234307
ONEWEB-0388             
1 49314U 21090AM  26202.22212684  .00000083  00000+0  17378-3 0  9991
2 49314  87.9184 298.1927 0001892 100.1090 260.0257 13.19724428230906
ONEWEB-0389             
1 50469U 21132A   26202.14217501  .00000068  00000+0  14259-3 0  9993
2 50469  87.9153 359.1133 0001626  84.4558 275.6759 13.17648248222554
ONEWEB-0390             
1 50470U 21132B   26202.14386282  .00000083  00000+0  18103-3 0  9997
2 50470  87.9151 359.1143 0002076  90.1746 269.9623 13.17648662222554
ONEWEB-0391             
1 50471U 21132C   26201.99367785 -.00000071  00000+0 -21567-3 0  9994
2 50471  87.9154 359.1540 0001801  68.2317 291.9006 13.17647554222531
ONEWEB-0392             
1 50472U 21132D   26201.94811891 -.00000009  00000+0 -55296-4 0  9990
2 50472  87.9161 359.1341 0001662  83.1555 276.9766 13.17647225222568
ONEWEB-0393             
1 50473U 21132E   26201.92366642  .00000008  00000+0 -12818-4 0  9999
2 50473  87.9153 359.1531 0001748  90.0770 270.0562 13.17647507222553
ONEWEB-0394             
1 50474U 21132F   26201.78728025  .00000030  00000+0  42746-4 0  9998
2 50474  87.9200 328.7623 0001755  99.8968 260.2362 13.18685644226025
