OBJECT_NAME,OBJECT_ID,EPOCH,MEAN_MOTION,ECCENTRICITY,INCLINATION,RA_OF_ASC_NODE,ARG_OF_PERICENTER,MEAN_ANOMALY,EPHEMERIS_TYPE,CLASSIFICATION_TYPE,NORAD_CAT_ID,ELEMENT_SET_NO,REV_AT_EPOCH,BSTAR,MEAN_MOTION_DOT,MEAN_MOTION_DDOT
ONEWEB-0365,2021-090N,2026-07-21T05:28:57.381888,13.19726545,.00020974,87.9192,298.1907,100.9371,259.1998,0,U,49291,999,23091,.92525219E-4,.5E-6,0
ONEWEB-0366,2021-090P,2026-07-21T03:44:45.107232,13.14502460,.00020068,87.8964,282.9388,98.2343,261.9015,0,U,49292,999,23202,.32066475E-3,.132E-5,0
ONEWEB-0367,2021-090Q,2026-07-21T04:16:14.481696,13.20773668,.00022073,87.9179,267.6678,100.0943,260.0440,0,U,49293,999,23431,.2963027E-5,.14E-6,0
ONEWEB-0368,2021-090R,2026-07-21T03:38:41.860032,13.20771796,.00017863,87.9168,267.6794,118.0761,242.0553,0,U,49294,999,23546,.44813239E-4,.31E-6,0
ONEWEB-0369,2021-090S,2026-07-21T05:22:07.924512,13.19726724,.00020105,87.9182,298.1966,102.8287,257.3070,0,U,49295,999,23090,.22429494E-3,.103E-5,0
ONEWEB-0370,2021-090T,2026-07-21T04:29:35.545344,13.20772336,.00022535,87.9178,267.6649,91.9652,268.1740,0,U,49296,999,23435,-.917963E-6,.13E-6,0
ONEWEB-0371,2021-090U,2026-07-21T05:33:30.627072,13.19725432,.00020906,87.9191,298.1898,100.6457,259.4911,0,U,49297,999,23094,.21433722E-3,.99E-6,0
ONEWEB-0372,2021-090V,2026-07-20T17:20:18.530880,13.20769759,.00020717,87.9182,267.7597,98.8531,261.2837,0,U,49298,999,23426,-.286605E-3,-.104E-5,0
ONEWEB-0373,2021-090W,2026-07-21T03:02:18.475008,13.20770080,.00020464,87.9174,267.6782,94.8728,265.2639,0,U,49299,999,23550,.10263269E-3,.55E-6,0
ONEWEB-0374,2021-090X,2026-07-20T18:18:24.951456,13.14503131,.00014712,87.8967,283.0090,92.5049,267.6249,0,U,49300,999,23197,.3507221E-3,.143E-5,0
ONEWEB-0375,2021-090Y,2026-07-21T02:45:20.449728,13.20770464,.00015622,87.9179,267.6731,87.3422,272.7890,0,U,49301,999,23500,.17457398E-4,.2E-6,0
ONEWEB-0376,2021-090Z,2026-07-21T00:03:41.801760,13.19723057,.00021156,87.9191,298.2352,104.9947,255.1420,0,U,49302,999,23091,.38057247E-4,.28E-6,0
ONEWEB-0377,2021-090AA,2026-07-20T17:20:41.151264,13.20769747,.00017349,87.9180,267.7535,95.4241,264.7090,0,U,49303,999,23494,-.75610292E-4,-.18E-6,0
ONEWEB-0378,2021-090AB,2026-07-21T04:44:20.761728,13.20772172,.00019175,87.9173,267.6620,98.2727,261.8624,0,U,49304,999,23427,.11421169E-3,.59E-6,0
ONEWEB-0379,2021-090AC,2026-07-21T03:19:37.581888,13.14502330,.00018865,87.8965,282.9441,99.9079,260.2264,0,U,49305,999,23202,.58009404E-3,.228E-5,0
ONEWEB-0380,2021-090AD,2026-07-21T05:26:40.882848,13.19727084,.00019431,87.9183,298.1936,94.9650,265.1704,0,U,49306,999,23091,.26142435E-3,.118E-5,0
ONEWEB-0381,2021-090AE,2026-07-21T02:21:05.582592,13.20769957,.00017874,87.9181,267.6834,94.6558,265.4779,0,U,49307,999,23430,.23493883E-4,.23E-6,0
ONEWEB-0382,2021-090AF,2026-07-21T03:50:48.626592,13.20772145,.00017235,87.9182,267.6648,98.7631,261.3697,0,U,49308,999,23430,.72343539E-4,.42E-6,0
ONEWEB-0383,2021-090AG,2026-07-21T03:10:29.338464,13.14502902,.00018836,87.8966,282.9377,102.3980,257.7360,0,U,49309,999,23205,.47234503E-3,.188E-5,0
ONEWEB-0384,2021-090AH,2026-07-21T03:32:53.958336,13.20814684,.00015839,87.9177,267.7109,102.4502,257.6809,0,U,49310,999,23431,.13875404E-4,.19E-6,0
ONEWEB-0385,2021-090AJ,2026-07-21T03:41:06.306144,13.20771241,.00018609,87.9178,267.6716,96.7746,263.3599,0,U,49311,999,23428,-.46271584E-4,-.6E-7,0
ONEWEB-0386,2021-090AK,2026-07-21T04:05:19.968864,13.20769726,.00017305,87.9188,267.6611,96.3299,263.8032,0,U,49312,999,23430,-.37789752E-4,-.2E-7,0
ONEWEB-0387,2021-090AL,2026-07-21T03:43:31.684512,13.20770894,.00018663,87.9169,267.6811,88.0380,272.0967,0,U,49313,999,23430,.98858409E-4,.53E-6,0
ONEWEB-0388,2021-090AM,2026-07-21T05:19:51.758976,13.19724428,.00018922,87.9184,298.1927,100.1090,260.0257,0,U,49314,999,23090,.17377963E-3,.83E-6,0
ONEWEB-0389,2021-132A,2026-07-21T03:24:43.920864,13.17648248,.00016268,87.9153,359.1133,84.4558,275.6759,0,U,50469,999,22255,.14259324E-3,.68E-6,0
ONEWEB-0390,2021-132B,2026-07-21T03:27:09.747648,13.17648662,.00020761,87.9151,359.1143,90.1746,269.9623,0,U,50470,999,22255,.18102746E-3,.83E-6,0
ONEWEB-0391,2021-132C,2026-07-20T23:50:53.766240,13.17647554,.00018019,87.9154,359.1540,68.2317,291.9006,0,U,50471,999,22253,-.21567253E-3,-.71E-6,0
ONEWEB-0392,2021-132D,2026-07-20T22:45:17.473824,13.17647225,.00016625,87.9161,359.1341,83.1555,276.9766,0,U,50472,999,22256,-.55296307E-4,-.9E-7,0
ONEWEB-0393,2021-132E,2026-07-20T22:10:04.778688,13.17647507,.00017488,87.9153,359.1531,90.0770,270.0562,0,U,50473,999,22255,-.12817811E-4,.8E-7,0
ONEWEB-0394,2021-132F,2026-07-20T18:53:41.013600,13.18685644,.00017557,87.9200,328.7623,99.8968,260.2362,0,U,50474,999,22602,.42745574E-4,.3E-6,0
